[Satellite]
VERSION=1.1
NAME=INTELSAT 25 (IS-25)
NICKNAME=INTELSAT 25 (IS-25)
TLE1=1 33153U 08034A   17185.30285730 -.00000230  00000-0  00000-0 0  9996
TLE2=2 33153   0.0271 279.6193 0002755 162.8830 277.5207  1.00271723 32964
